[{"OBJECT_NAME":"STARLINK-5379","OBJECT_ID":"2022-177BA","EPOCH":"2026-03-09T22:00:01.999584","MEAN_MOTION":15.05985943,"ECCENTRICITY":0.00026875,"INCLINATION":43.0013,"RA_OF_ASC_NODE":118.6934,"ARG_OF_PERICENTER":273.5195,"MEAN_ANOMALY":99.3742,"EPHEMERIS_TYPE":0,"CLASSIFICATION_TYPE":"U","NORAD_CAT_ID":54868,"ELEMENT_SET_NO":999,"REV_AT_EPOCH":578,"BSTAR":0.0041221768,"MEAN_MOTION_DOT":0.00061396,"MEAN_MOTION_DDOT":0},{"OBJECT_NAME":"FENGYUN 1C DEB","OBJECT_ID":"1999-025BZN","EPOCH":"2026-03-03T04:13:23.729376","MEAN_MOTION":14.87557859,"ECCENTRICITY":0.01425437,"INCLINATION":98.383,"RA_OF_ASC_NODE":189.7124,"ARG_OF_PERICENTER":136.8849,"MEAN_ANOMALY":224.3635,"EPHEMERIS_TYPE":0,"CLASSIFICATION_TYPE":"U","NORAD_CAT_ID":31608,"ELEMENT_SET_NO":999,"REV_AT_EPOCH":99828,"BSTAR":0.0013394908,"MEAN_MOTION_DOT":0.00014627,"MEAN_MOTION_DDOT":0}]
